STARLINK-32441          
1 61668U 24193H   26068.35372660  .00000610  00000+0  32717-4 0  9990
2 61668  53.1604  92.6773 0001181 107.0452 253.0678 15.30192515 76479
TEVEL2-8                
1 63239U 25052AF  26068.66815442  .00019130  00000+0  69304-3 0  9993
2 63239  97.4055 324.2923 0008031 124.9191 235.2804 15.28392908 54807
